[{"OBJECT_NAME":"STARLINK-31140","OBJECT_ID":"2024-011C","EPOCH":"2026-03-09T01:19:39.082944","MEAN_MOTION":15.30197835,"ECCENTRICITY":0.00010797,"INCLINATION":53.1621,"RA_OF_ASC_NODE":16.5875,"ARG_OF_PERICENTER":106.5079,"MEAN_ANOMALY":253.6041,"EPHEMERIS_TYPE":0,"CLASSIFICATION_TYPE":"U","NORAD_CAT_ID":58767,"ELEMENT_SET_NO":999,"REV_AT_EPOCH":12017,"BSTAR":3.9028293e-5,"MEAN_MOTION_DOT":7.97e-6,"MEAN_MOTION_DDOT":0},{"OBJECT_NAME":"NUSAT-49 (KLARA DAN VON NEUMANN)","OBJECT_ID":"2024-149AJ","EPOCH":"2026-03-09T19:09:16.004160","MEAN_MOTION":15.30828857,"ECCENTRICITY":0.00011321,"INCLINATION":97.3807,"RA_OF_ASC_NODE":150.738,"ARG_OF_PERICENTER":286.7761,"MEAN_ANOMALY":73.3356,"EPHEMERIS_TYPE":0,"CLASSIFICATION_TYPE":"U","NORAD_CAT_ID":60500,"ELEMENT_SET_NO":999,"REV_AT_EPOCH":8693,"BSTAR":0.00043568345,"MEAN_MOTION_DOT":0.00012912,"MEAN_MOTION_DDOT":0}]
