STARLINK-31140          
1 58767U 24011C   26068.05531346  .00000797  00000+0  39028-4 0  9998
2 58767  53.1621  16.5875 0001079 106.5079 253.6041 15.30197835120174
NUSAT-49 (KLARA DAN VO*)
1 60500U 24149AJ  26068.79810190  .00012912  00000+0  43568-3 0  9991
2 60500  97.3807 150.7380 0001132 286.7761  73.3356 15.30828857 86935
